start=new Date('2023-01-10T00:00:00.000Z').valueOf();
sats=[{"INCLINATION":"53.2193","OBJECT_TYPE":"PAYLOAD","MEAN_ELEMENT_THEORY":"SGP4","ARG_OF_PERICENTER":"42.3794","MEAN_MOTION":"15.08843693","MEAN_MOTION_DOT":"0.00005117","ELEMENT_SET_NO":"999","DECAY_DATE":null,"LAUNCH_DATE":"2022-07-24","REV_AT_EPOCH":"2680","EPOCH":"2023-01-09T13:43:41.193120","SEMIMAJOR_AXIS":"6917.869","EPHEMERIS_TYPE":"0","SITE":"AFETR","NORAD_CAT_ID":"53286","CLASSIFICATION_TYPE":"U","PERIOD":"95.437","TLE_LINE1":"1 53286U 22086AW  23009.57200455  .00005117  00000-0  33936-3 0  9995","APOAPSIS":"541.446","REF_FRAME":"TEME","MEAN_ANOMALY":"317.7389","MEAN_MOTION_DDOT":"0.0000000000000","CENTER_NAME":"EARTH","FILE":"3737263","ECCENTRICITY":"0.00024750","TIME_SYSTEM":"UTC","COUNTRY_CODE":"US","OBJECT_NAME":"STARLINK-4165","RA_OF_ASC_NODE":"329.6378","TLE_LINE2":"2 53286  53.2193 329.6378 0002475  42.3794 317.7389 15.08843693 26805","PERIAPSIS":"538.022","RCS_SIZE":"LARGE","GP_ID":"222546168","BSTAR":"0.00033936000000","OBJECT_ID":"2022-086AW"},{"TLE_LINE2":"2 53287  53.2182 330.8913 0001921  41.5573 318.5564 15.08854809 26607","PERIAPSIS":"538.371","RCS_SIZE":"LARGE","COUNTRY_CODE":"US","OBJECT_NAME":"STARLINK-4107","RA_OF_ASC_NODE":"330.8913","OBJECT_ID":"2022-086AX","BSTAR":"-0.00001651200000","GP_ID":"222581361","MEAN_ANOMALY":"318.5564","APOAPSIS":"541.029","REF_FRAME":"TEME","ECCENTRICITY":"0.00019210","TIME_SYSTEM":"UTC","FILE":"3737605","CENTER_NAME":"EARTH","MEAN_MOTION_DDOT":"0.0000000000000","NORAD_CAT_ID":"53287","SITE":"AFETR","EPHEMERIS_TYPE":"0","SEMIMAJOR_AXIS":"6917.835","EPOCH":"2023-01-09T07:00:56.567232","DECAY_DATE":null,"REV_AT_EPOCH":"2660","LAUNCH_DATE":"2022-07-24","TLE_LINE1":"1 53287U 22086AX  23009.29232138 -.00000551  00000-0 -16512-4 0  9999","PERIOD":"95.437","CLASSIFICATION_TYPE":"U","OBJECT_TYPE":"PAYLOAD","INCLINATION":"53.2182","ELEMENT_SET_NO":"999","MEAN_MOTION_DOT":"-0.00000551","MEAN_MOTION":"15.08854809","ARG_OF_PERICENTER":"41.5573","MEAN_ELEMENT_THEORY":"SGP4"},{"FILE":"3737263","CENTER_NAME":"EARTH","MEAN_MOTION_DDOT":"0.0000000000000","TIME_SYSTEM":"UTC","ECCENTRICITY":"0.00024110","MEAN_ANOMALY":"319.8821","REF_FRAME":"TEME","APOAPSIS":"541.420","BSTAR":"-0.00003396800000","GP_ID":"222546628","OBJECT_ID":"2022-086AY","TLE_LINE2":"2 53288  53.2206 330.8402 0002411  40.2349 319.8821 15.08837781 26767","RCS_SIZE":"LARGE","PERIAPSIS":"538.084","COUNTRY_CODE":"US","RA_OF_ASC_NODE":"330.8402","OBJECT_NAME":"STARLINK-4162","ARG_OF_PERICENTER":"40.2349","MEAN_ELEMENT_THEORY":"SGP4","ELEMENT_SET_NO":"999","MEAN_MOTION_DOT":"-0.00000829","MEAN_MOTION":"15.08837781","INCLINATION":"53.2206","OBJECT_TYPE":"PAYLOAD","PERIOD":"95.438","CLASSIFICATION_TYPE":"U","TLE_LINE1":"1 53288U 22086AY  23009.30336162 -.00000829  00000-0 -33968-4 0  9996","SITE":"AFETR","EPOCH":"2023-01-09T07:16:50.443968","SEMIMAJOR_AXIS":"6917.887","EPHEMERIS_TYPE":"0","LAUNCH_DATE":"2022-07-24","DECAY_DATE":null,"REV_AT_EPOCH":"2676","NORAD_CAT_ID":"53288"},{"FILE":"3737263","CENTER_NAME":"EARTH","MEAN_MOTION_DDOT":"0.0000000000000","ECCENTRICITY":"0.00016920","TIME_SYSTEM":"UTC","MEAN_ANOMALY":"292.3551","REF_FRAME":"TEME","APOAPSIS":"540.889","BSTAR":"0.00061893000000","GP_ID":"222547318","OBJECT_ID":"2022-086AZ","TLE_LINE2":"2 53289  53.2170 324.6382 0001692  67.7621 292.3551 15.08848679 26878","PERIAPSIS":"538.548","RCS_SIZE":"LARGE","COUNTRY_CODE":"US","RA_OF_ASC_NODE":"324.6382","OBJECT_NAME":"STARLINK-4176","ARG_OF_PERICENTER":"67.7621","MEAN_ELEMENT_THEORY":"SGP4","ELEMENT_SET_NO":"999","MEAN_MOTION":"15.08848679","MEAN_MOTION_DOT":"0.00009578","INCLINATION":"53.2170","OBJECT_TYPE":"PAYLOAD","PERIOD":"95.437","CLASSIFICATION_TYPE":"U","TLE_LINE1":"1 53289U 22086AZ  23009.59736723  .00009578  00000-0  61893-3 0  9990","SITE":"AFETR","SEMIMAJOR_AXIS":"6917.854","EPOCH":"2023-01-09T14:20:12.528672","EPHEMERIS_TYPE":"0","LAUNCH_DATE":"2022-07-24","DECAY_DATE":null,"REV_AT_EPOCH":"2687","NORAD_CAT_ID":"53289"},{"OBJECT_ID":"2022-086BA","BSTAR":"0.00003199200000","GP_ID":"222545708","RCS_SIZE":"LARGE","TLE_LINE2":"2 53290  53.2195 330.8784 0002255  36.3907 323.7238 15.08846368 26769","PERIAPSIS":"538.166","COUNTRY_CODE":"US","RA_OF_ASC_NODE":"330.8784","OBJECT_NAME":"STARLINK-4149","ECCENTRICITY":"0.00022550","TIME_SYSTEM":"UTC","FILE":"3737263","CENTER_NAME":"EARTH","MEAN_MOTION_DDOT":"0.0000000000000","MEAN_ANOMALY":"323.7238","APOAPSIS":"541.286","REF_FRAME":"TEME","TLE_LINE1":"1 53290U 22086BA  23009.29600103  .00000221  00000-0  31992-4 0  9995","PERIOD":"95.437","CLASSIFICATION_TYPE":"U","NORAD_CAT_ID":"53290","SITE":"AFETR","EPHEMERIS_TYPE":"0","SEMIMAJOR_AXIS":"6917.861","EPOCH":"2023-01-09T07:06:14.488992","DECAY_DATE":null,"REV_AT_EPOCH":"2676","LAUNCH_DATE":"2022-07-24","ELEMENT_SET_NO":"999","MEAN_MOTION":"15.08846368","MEAN_MOTION_DOT":"0.00000221","ARG_OF_PERICENTER":"36.3907","MEAN_ELEMENT_THEORY":"SGP4","OBJECT_TYPE":"PAYLOAD","INCLINATION":"53.2195"},{"ARG_OF_PERICENTER":"35.0588","MEAN_ELEMENT_THEORY":"SGP4","ELEMENT_SET_NO":"999","MEAN_MOTION_DOT":"0.00007823","MEAN_MOTION":"15.08852481","INCLINATION":"53.2188","OBJECT_TYPE":"PAYLOAD","PERIOD":"95.437","CLASSIFICATION_TYPE":"U","TLE_LINE1":"1 53291U 22086BB  23009.56420167  .00007823  00000-0  50891-3 0  9999","SITE":"AFETR","SEMIMAJOR_AXIS":"6917.842","EPHEMERIS_TYPE":"0","EPOCH":"2023-01-09T13:32:27.024288","REV_AT_EPOCH":"2671","DECAY_DATE":null,"LAUNCH_DATE":"2022-07-24","NORAD_CAT_ID":"53291","FILE":"3737605","CENTER_NAME":"EARTH","MEAN_MOTION_DDOT":"0.0000000000000","ECCENTRICITY":"0.00013450","TIME_SYSTEM":"UTC","MEAN_ANOMALY":"325.0492","APOAPSIS":"540.638","REF_FRAME":"TEME","BSTAR":"0.00050891000000","GP_ID":"222581719","OBJECT_ID":"2022-086BB","TLE_LINE2":"2 53291  53.2188 324.4339 0001345  35.0588 325.0492 15.08852481 26712","RCS_SIZE":"LARGE","PERIAPSIS":"538.777","COUNTRY_CODE":"US","OBJECT_NAME":"STARLINK-4166","RA_OF_ASC_NODE":"324.4339"},{"NORAD_CAT_ID":"53292","SITE":"AFETR","SEMIMAJOR_AXIS":"6917.883","EPOCH":"2023-01-09T06:57:02.316096","EPHEMERIS_TYPE":"0","DECAY_DATE":null,"REV_AT_EPOCH":"2676","LAUNCH_DATE":"2022-07-24","TLE_LINE1":"1 53292U 22086BC  23009.28961014  .00001504  00000-0  11258-3 0  9994","PERIOD":"95.438","CLASSIFICATION_TYPE":"U","OBJECT_TYPE":"PAYLOAD","INCLINATION":"53.2183","ELEMENT_SET_NO":"999","MEAN_MOTION_DOT":"0.00001504","MEAN_MOTION":"15.08839023","ARG_OF_PERICENTER":"41.7002","MEAN_ELEMENT_THEORY":"SGP4","TLE_LINE2":"2 53292  53.2183 330.9118 0002031  41.7002 318.4144 15.08839023 26765","PERIAPSIS":"538.343","RCS_SIZE":"LARGE","COUNTRY_CODE":"US","OBJECT_NAME":"STARLINK-4159","RA_OF_ASC_NODE":"330.9118","OBJECT_ID":"2022-086BC","BSTAR":"0.00011258000000","GP_ID":"222547088","MEAN_ANOMALY":"318.4144","REF_FRAME":"TEME","APOAPSIS":"541.153","TIME_SYSTEM":"UTC","ECCENTRICITY":"0.00020310","FILE":"3737263","CENTER_NAME":"EARTH","MEAN_MOTION_DDOT":"0.0000000000000"},{"OBJECT_ID":"2022-086BD","GP_ID":"222546858","BSTAR":"-0.00000040950000","COUNTRY_CODE":"US","RA_OF_ASC_NODE":"319.5560","OBJECT_NAME":"STARLINK-4148","PERIAPSIS":"538.190","TLE_LINE2":"2 53293  53.2182 319.5560 0002249  52.6461 307.4736 15.08839957 26941","RCS_SIZE":"LARGE","TIME_SYSTEM":"UTC","ECCENTRICITY":"0.00022490","CENTER_NAME":"EARTH","MEAN_MOTION_DDOT":"0.0000000000000","FILE":"3737263","MEAN_ANOMALY":"307.4736","APOAPSIS":"541.301","REF_FRAME":"TEME","TLE_LINE1":"1 53293U 22086BD  23009.59228208 -.00000295  00000-0 -40950-6 0  9992","CLASSIFICATION_TYPE":"U","PERIOD":"95.438","NORAD_CAT_ID":"53293","DECAY_DATE":null,"REV_AT_EPOCH":"2694","LAUNCH_DATE":"2022-07-24","SITE":"AFETR","EPHEMERIS_TYPE":"0","SEMIMAJOR_AXIS":"6917.881","EPOCH":"2023-01-09T14:12:53.171712","MEAN_MOTION_DOT":"-0.00000295","MEAN_MOTION":"15.08839957","ELEMENT_SET_NO":"999","ARG_OF_PERICENTER":"52.6461","MEAN_ELEMENT_THEORY":"SGP4","OBJECT_TYPE":"PAYLOAD","INCLINATION":"53.2182"},{"TLE_LINE1":"1 53294U 22086BE  23009.55916115 -.00000624  00000-0 -21064-4 0  9999","PERIOD":"95.438","CLASSIFICATION_TYPE":"U","NORAD_CAT_ID":"53294","SITE":"AFETR","EPHEMERIS_TYPE":"0","SEMIMAJOR_AXIS":"6917.884","EPOCH":"2023-01-09T13:25:11.523360","DECAY_DATE":null,"REV_AT_EPOCH":"2698","LAUNCH_DATE":"2022-07-24","ELEMENT_SET_NO":"999","MEAN_MOTION_DOT":"-0.00000624","MEAN_MOTION":"15.08838862","ARG_OF_PERICENTER":"39.8307","MEAN_ELEMENT_THEORY":"SGP4","OBJECT_TYPE":"PAYLOAD","INCLINATION":"53.2197","OBJECT_ID":"2022-086BE","BSTAR":"-0.00002106400000","GP_ID":"222546169","PERIAPSIS":"538.082","TLE_LINE2":"2 53294  53.2197 319.6964 0002409  39.8307 320.2862 15.08838862 26982","RCS_SIZE":"LARGE","RA_OF_ASC_NODE":"319.6964","COUNTRY_CODE":"US","OBJECT_NAME":"STARLINK-4146","ECCENTRICITY":"0.00024090","TIME_SYSTEM":"UTC","FILE":"3737263","CENTER_NAME":"EARTH","MEAN_MOTION_DDOT":"0.0000000000000","MEAN_ANOMALY":"320.2862","REF_FRAME":"TEME","APOAPSIS":"541.415"},{"ELEMENT_SET_NO":"999","MEAN_MOTION_DOT":"0.00014366","MEAN_MOTION":"15.08858351","MEAN_ELEMENT_THEORY":"SGP4","ARG_OF_PERICENTER":"21.6516","OBJECT_TYPE":"PAYLOAD","INCLINATION":"53.2157","TLE_LINE1":"1 53388U 22097A   23009.43032924  .00014366  00000-0  91839-3 0  9991","PERIOD":"95.436","CLASSIFICATION_TYPE":"U","NORAD_CAT_ID":"53388","EPOCH":"2023-01-09T10:19:40.446336","SEMIMAJOR_AXIS":"6917.824","EPHEMERIS_TYPE":"0","SITE":"AFETR","LAUNCH_DATE":"2022-08-10","DECAY_DATE":null,"REV_AT_EPOCH":"2361","TIME_SYSTEM":"UTC","ECCENTRICITY":"0.00030530","FILE":"3737641","MEAN_MOTION_DDOT":"0.0000000000000","CENTER_NAME":"EARTH","APOAPSIS":"541.801","REF_FRAME":"TEME","MEAN_ANOMALY":"338.4604","OBJECT_ID":"2022-097A","BSTAR":"0.00091839000000","GP_ID":"222582171","PERIAPSIS":"537.577","TLE_LINE2":"2 53388  53.2157 270.2989 0003053  21.6516 338.4604 15.08858351 23615","RCS_SIZE":"LARGE","COUNTRY_CODE":"US","OBJECT_NAME":"STARLINK-4522","RA_OF_ASC_NODE":"270.2989"}];
